[{"OBJECT_NAME":"YAOGAN-30 05C","OBJECT_ID":"2018-011D","EPOCH":"2026-03-09T22:46:23.359872","MEAN_MOTION":15.02099637,"ECCENTRICITY":0.00031952,"INCLINATION":34.998,"RA_OF_ASC_NODE":35.5831,"ARG_OF_PERICENTER":272.2506,"MEAN_ANOMALY":87.7836,"EPHEMERIS_TYPE":0,"CLASSIFICATION_TYPE":"U","NORAD_CAT_ID":43172,"ELEMENT_SET_NO":999,"REV_AT_EPOCH":44315,"BSTAR":0.00032814398,"MEAN_MOTION_DOT":4.373e-5,"MEAN_MOTION_DDOT":0},{"OBJECT_NAME":"STARLINK-35330","OBJECT_ID":"2025-218A","EPOCH":"2026-03-09T14:40:36.122880","MEAN_MOTION":15.05663075,"ECCENTRICITY":0.0002203,"INCLINATION":97.6017,"RA_OF_ASC_NODE":292.8091,"ARG_OF_PERICENTER":84.3083,"MEAN_ANOMALY":275.8395,"EPHEMERIS_TYPE":0,"CLASSIFICATION_TYPE":"U","NORAD_CAT_ID":65791,"ELEMENT_SET_NO":999,"REV_AT_EPOCH":2495,"BSTAR":0.00010922,"MEAN_MOTION_DOT":1.516e-5,"MEAN_MOTION_DDOT":0}]
